NORAD_CAT_ID,OBJECT_NAME,OBJECT_TYPE,EPOCH,MEAN_MOTION,ECCENTRICITY,INCLINATION,RA_OF_ASC_NODE,ARG_OF_PERICENTER,MEAN_ANOMALY,BSTAR,MEAN_MOTION_DOT,MEAN_MOTION_DDOT,TLE_LINE0,TLE_LINE1,TLE_LINE2,SEMIMAJOR_AXIS,PERIOD,APOGEE,PERIGEE,DECAYED
55303.0,STARLINK-5322,PAYLOAD,2023-02-15 21:29:28,15.70049066,0.0003583,70.0,351.9821,261.294,98.785,0.00042262,0.00051181,0.0,0 STARLINK-5322,1 55303U 23010AL  23046.89546418  .00051181  00000-0  42262-3 0  9997,2 55303  70.0000 351.9821 0003583 261.2940  98.7850 15.70049066  5119,6736.894,91.717,361.172,356.345,0.0
55303.0,STARLINK-5322,PAYLOAD,2023-02-15 23:01:12,15.70067762,0.0003612,70.0,351.803,264.4925,95.5859,0.00055243,0.00067147,0.0,0 STARLINK-5322,1 55303U 23010AL  23046.95917559  .00067147  00000-0  55243-3 0  9994,2 55303  70.0000 351.8030 0003612 264.4925  95.5859 15.70067762  4814,6736.84,91.716,361.139,356.272,0.0
55303.0,STARLINK-5322,PAYLOAD,2023-02-16 08:11:44,15.69933369,0.0003479,70.0003,350.7279,274.6707,85.4092,-0.00017125,-0.00020762,0.0,0 STARLINK-5322,1 55303U 23010AL  23047.34148755 -.00020762  00000-0 -17125-3 0  9993,2 55303  70.0003 350.7279 0003479 274.6707  85.4092 15.69933369  4878,6737.225,91.724,361.434,356.746,0.0
55303.0,STARLINK-5322,PAYLOAD,2023-02-16 12:47:00,15.69852148,0.0003154,70.0004,350.1914,297.0169,63.0705,0.00055041,0.00066294,0.0,0 STARLINK-5322,1 55303U 23010AL  23047.53264936  .00066294  00000-0  55041-3 0  9991,2 55303  70.0004 350.1914 0003154 297.0169  63.0705 15.69852148  5217,6737.457,91.728,361.447,357.197,0.0
55303.0,STARLINK-5322,PAYLOAD,2023-02-16 14:18:45,15.69866452,0.0003428,70.0004,350.0118,278.1289,81.9517,0.00056788,0.00068466,0.0,0 STARLINK-5322,1 55303U 23010AL  23047.59636530  .00068466  00000-0  56788-3 0  9992,2 55303  70.0004 350.0118 0003428 278.1289  81.9517 15.69866452  4918,6737.416,91.728,361.591,356.971,0.0
55303.0,STARLINK-5322,PAYLOAD,2023-02-16 21:57:32,15.69875816,0.0003425,70.0006,349.1158,276.1126,83.9679,0.00069603,0.00084155,0.0,0 STARLINK-5322,1 55303U 23010AL  23047.91496284  .00084155  00000-0  69603-3 0  9991,2 55303  70.0006 349.1158 0003425 276.1126  83.9679 15.69875816  5273,6737.389,91.727,361.562,356.947,0.0
55303.0,STARLINK-5322,PAYLOAD,2023-02-16 23:29:18,15.69877923,0.0003404,70.0007,348.9367,269.4857,90.5949,0.00060206,0.00072671,0.0,0 STARLINK-5322,1 55303U 23010AL  23047.97868098  .00072671  00000-0  60206-3 0  9993,2 55303  70.0007 348.9367 0003404 269.4857  90.5949 15.69877923  4977,6737.383,91.727,361.542,356.955,0.0
55303.0,STARLINK-5322,PAYLOAD,2023-02-17 05:36:19,15.69882438,0.0003353,70.0008,348.22,270.9699,89.1113,0.00027126,0.00032474,0.0,0 STARLINK-5322,1 55303U 23010AL  23048.23355618  .00032474  00000-0  27126-3 0  9993,2 55303  70.0008 348.2200 0003353 270.9699  89.1113 15.69882438  5011,6737.37,91.727,361.494,356.976,0.0
55303.0,STARLINK-5322,PAYLOAD,2023-02-17 13:15:05,15.69918033,0.0003389,70.0009,347.3243,273.4523,86.6285,0.00073527,0.00089119,0.0,0 STARLINK-5322,1 55303U 23010AL  23048.55214446  .00089119  00000-0  73527-3 0  9995,2 55303  70.0009 347.3243 0003389 273.4523  86.6285 15.69918033  5060,6737.269,91.725,361.417,356.85,0.0
55303.0,STARLINK-5322,PAYLOAD,2023-02-17 20:53:50,15.69948707,0.0003425,70.0008,346.4285,272.9167,87.1637,0.00054635,0.00066068,0.0,0 STARLINK-5322,1 55303U 23010AL  23048.87072713  .00066068  00000-0  54635-3 0  9996,2 55303  70.0008 346.4285 0003425 272.9167  87.1637 15.69948707  5118,6737.181,91.723,361.353,356.738,0.0
55303.0,STARLINK-5322,PAYLOAD,2023-02-18 06:04:21,15.69922871,0.0003394,70.001,345.3537,274.9036,85.1773,0.00013412,0.00015944,0.0,0 STARLINK-5322,1 55303U 23010AL  23049.25302730  .00015944  00000-0  13412-3 0  9999,2 55303  70.0010 345.3537 0003394 274.9036  85.1773 15.69922871  5170,6737.255,91.724,361.406,356.833,0.0
55303.0,STARLINK-5322,PAYLOAD,2023-02-18 13:43:07,15.69919373,0.0003442,70.0012,344.4581,276.718,83.3624,0.00036664,0.00044097,0.0,0 STARLINK-5322,1 55303U 23010AL  23049.57161114  .00044097  00000-0  36664-3 0  9998,2 55303  70.0012 344.4581 0003442 276.7180  83.3624 15.69919373  5533,6737.265,91.724,361.449,356.811,0.0
55303.0,STARLINK-5322,PAYLOAD,2023-02-18 21:21:53,15.69924314,0.0003447,70.0015,343.5623,275.6731,84.4072,0.00021174,0.00025325,0.0,0 STARLINK-5322,1 55303U 23010AL  23049.89019677  .00025325  00000-0  21174-3 0  9992,2 55303  70.0015 343.5623 0003447 275.6731  84.4072 15.69924314  5279,6737.251,91.724,361.438,356.793,0.0
55303.0,STARLINK-5322,PAYLOAD,2023-02-19 12:39:23,15.69938235,0.0003363,70.0014,341.7709,273.523,86.5581,0.00014524,0.00017297,0.0,0 STARLINK-5322,1 55303U 23010AL  23050.52736005  .00017297  00000-0  14524-3 0  9995,2 55303  70.0014 341.7709 0003363 273.5230  86.5581 15.69938235  5681,6737.211,91.723,361.341,356.81,0.0
55303.0,STARLINK-5322,PAYLOAD,2023-02-19 23:21:39,15.69936164,0.0003482,70.0014,340.5173,270.7362,89.3435,0.00018217,0.0002176,0.0,0 STARLINK-5322,1 55303U 23010AL  23050.97337813  .00021760  00000-0  18217-3 0  9991,2 55303  70.0014 340.5173 0003482 270.7362  89.3435 15.69936164  5442,6737.217,91.723,361.428,356.736,0.0
55303.0,STARLINK-5322,PAYLOAD,2023-02-20 13:07:26,15.69920674,0.0003465,70.0015,338.9048,264.8957,95.1844,0.00032276,0.00038771,0.0,0 STARLINK-5322,1 55303U 23010AL  23051.54683063  .00038771  00000-0  32276-3 0  9997,2 55303  70.0015 338.9048 0003465 264.8957  95.1844 15.69920674  5538,6737.261,91.724,361.46,356.791,0.0
55303.0,STARLINK-5322,PAYLOAD,2023-02-20 23:49:42,15.69938692,0.0003504,70.0015,337.6514,262.2323,97.8475,0.00025137,0.0003014,0.0,0 STARLINK-5322,1 55303U 23010AL  23051.99284814  .00030140  00000-0  25137-3 0  9997,2 55303  70.0015 337.6514 0003504 262.2323  97.8475 15.69938692  5601,6737.209,91.723,361.435,356.714,0.0
55303.0,STARLINK-5322,PAYLOAD,2023-02-21 13:35:28,15.69936043,0.0003526,70.0012,336.0389,267.0729,93.0063,0.00046849,0.00056529,0.0,0 STARLINK-5322,1 55303U 23010AL  23052.56629650  .00056529  00000-0  46849-3 0  9994,2 55303  70.0012 336.0389 0003526 267.0729  93.0063 15.69936043  5696,6737.217,91.723,361.458,356.706,0.0
55303.0,STARLINK-5322,PAYLOAD,2023-02-21 19:42:28,15.69930145,0.0003509,70.0009,335.3225,268.1929,91.8865,0.00038692,0.00046583,0.0,0 STARLINK-5322,1 55303U 23010AL  23052.82116330  .00046583  00000-0  38692-3 0  9995,2 55303  70.0009 335.3225 0003509 268.1929  91.8865 15.69930145  5736,6737.234,91.724,361.463,356.735,0.0
55303.0,STARLINK-5322,PAYLOAD,2023-02-21 21:14:13,15.6995151,0.0003496,70.0011,335.1438,265.78,94.2996,0.00023582,0.00028271,0.0,0 STARLINK-5322,1 55303U 23010AL  23052.88487760  .00028271  00000-0  23582-3 0  9995,2 55303  70.0011 335.1438 0003496 265.7800  94.2996 15.69951510  6056,6737.173,91.723,361.393,356.682,0.0
55303.0,STARLINK-5322,PAYLOAD,2023-02-22 06:24:44,15.69905779,0.0003309,70.0009,334.0688,273.4393,86.6424,-9.9124e-05,-0.00012105,0.0,0 STARLINK-5322,1 55303U 23010AL  23053.26718149 -.00012105  00000-0 -99124-4 0  9993,2 55303  70.0009 334.0688 0003309 273.4393  86.6424 15.69905779  5803,6737.304,91.725,361.398,356.939,0.0
55303.0,STARLINK-5322,PAYLOAD,2023-02-22 21:42:15,15.69946204,0.0003673,70.0008,332.2773,266.3753,93.7023,0.00044035,0.00053123,0.0,0 STARLINK-5322,1 55303U 23010AL  23053.90434936  .00053123  00000-0  44035-3 0  9996,2 55303  70.0008 332.2773 0003673 266.3753  93.7023 15.69946204  6210,6737.188,91.723,361.527,356.578,0.0
55303.0,STARLINK-5322,PAYLOAD,2023-02-23 06:52:46,15.69943443,0.0002722,70.0005,331.2021,277.6543,82.4344,0.00055182,0.00066715,0.0,0 STARLINK-5322,1 55303U 23010AL  23054.28664908  .00066715  00000-0  55182-3 0  9998,2 55303  70.0005 331.2021 0002722 277.6543  82.4344 15.69943443  5962,6737.196,91.723,360.895,357.227,0.0
55303.0,STARLINK-5322,PAYLOAD,2023-02-23 19:06:47,15.69925017,0.0003714,70.0001,329.7692,272.8207,87.2563,0.00036819,0.00044298,0.0,0 STARLINK-5322,1 55303U 23010AL  23054.79638408  .00044298  00000-0  36819-3 0  9998,2 55303  70.0001 329.7692 0003714 272.8207  87.2563 15.69925017  6357,6737.249,91.724,361.616,356.611,0.0
55303.0,STARLINK-5322,PAYLOAD,2023-02-23 22:10:17,15.69941213,0.0003644,70.0003,329.4112,271.4687,88.6092,0.00026947,0.00032338,0.0,0 STARLINK-5322,1 55303U 23010AL  23054.92381575  .00032338  00000-0  26947-3 0  9996,2 55303  70.0003 329.4112 0003644 271.4687  88.6092 15.69941213  6068,6737.202,91.723,361.522,356.612,0.0
55303.0,STARLINK-5322,PAYLOAD,2023-02-24 05:49:03,15.69944375,0.000278,70.0001,328.5142,278.0134,82.0746,0.00024913,0.00029872,0.0,0 STARLINK-5322,1 55303U 23010AL  23055.24240076  .00029872  00000-0  24913-3 0  9992,2 55303  70.0001 328.5142 0002780 278.0134  82.0746 15.69944375  6111,6737.193,91.723,360.931,357.185,0.0
55303.0,STARLINK-5322,PAYLOAD,2023-02-24 18:03:04,15.69941153,0.00034,70.0004,327.0828,260.5702,99.5109,0.00023726,0.00028433,0.0,0 STARLINK-5322,1 55303U 23010AL  23055.75213443  .00028433  00000-0  23726-3 0  9999,2 55303  70.0004 327.0828 0003400 260.5702  99.5109 15.69941153  6191,6737.202,91.723,361.358,356.777,0.0
55303.0,STARLINK-5322,PAYLOAD,2023-02-24 19:34:49,15.6988316,0.0004152,70.0001,326.9031,273.6443,86.4277,0.00042721,0.00051391,0.0,0 STARLINK-5322,1 55303U 23010AL  23055.81585503  .00051391  00000-0  42721-3 0  9990,2 55303  70.0001 326.9031 0004152 273.6443  86.4277 15.69883160  6514,6737.368,91.727,362.031,356.436,0.0
55303.0,STARLINK-5322,PAYLOAD,2023-02-25 00:10:05,15.69915922,0.0004025,70.0002,326.3662,266.1739,93.8997,0.00017109,0.00020405,0.0,0 STARLINK-5322,1 55303U 23010AL  23056.00700545  .00020405  00000-0  17109-3 0  9991,2 55303  70.0002 326.3662 0004025 266.1739  93.8997 15.69915922  6235,6737.275,91.725,361.851,356.428,0.0
55303.0,STARLINK-5322,PAYLOAD,2023-02-25 03:13:35,15.69926481,0.000365,70.0001,326.007,261.6038,98.4744,0.00045619,0.00055009,0.0,0 STARLINK-5322,1 55303U 23010AL  23056.13444096  .00055009  00000-0  45619-3 0  9996,2 55303  70.0001 326.0070 0003650 261.6038  98.4744 15.69926481  6254,6737.244,91.724,361.568,356.65,0.0
